name,phone,email,address,city,country
Marvin Forbes,(347) 774-5242,sagittis.semper@outlook.ca,"6740 Felis, St.",Mildura,Philippines
Hamish Wong,(326) 430-1538,sed@protonmail.ca,Ap #807-9845 Placerat. Av.,Tank,Ukraine
Richard Britt,(693) 888-3918,in.condimentum@icloud.com,Ap #346-4210 Aenean Ave,Palangka Raya,Belgium
Nora Sharp,1-308-846-6311,quam.pellentesque@google.couk,Ap #753-2447 Egestas. Av.,Pskov,Philippines
Chandler Mendoza,(435) 958-8540,eu.nulla@outlook.net,"P.O. Box 588, 3703 Augue St.",Kaluga,Turkey
Kevin Schneider,1-161-436-1145,magna.tellus@protonmail.com,"192-1757 Vitae, Rd.",Almere,United Kingdom
Edan Hull,1-578-711-3338,eu@protonmail.couk,464-8446 Dolor. Av.,San Marcos,United States
Keaton Albert,1-444-414-2755,justo.faucibus.lectus@protonmail.ca,8942 Rhoncus. Rd.,Cartagena,Austria
Ivor Wyatt,1-610-364-2216,sapien@aol.couk,"P.O. Box 538, 2249 Risus. Rd.",Sicuani,Germany
Quintessa Fernandez,(443) 410-7227,malesuada@icloud.org,Ap #228-8235 Auctor Ave,Huaraz,New Zealand
Jaden Durham,(351) 525-1039,egestas.urna.justo@google.org,150-4743 Tortor. Av.,Tampines,Belgium
Sasha Rhodes,(635) 526-0081,diam.lorem@icloud.org,"Ap #867-7407 Eu, Ave",Konotop,Singapore
Tarik Campos,(454) 472-2176,nibh.enim@outlook.org,"P.O. Box 862, 873 Luctus Ave",Tula,Austria
Suki Reid,1-176-485-6488,commodo.auctor@yahoo.net,Ap #992-9279 Ornare Rd.,Hay River,United States
Armando Duncan,(372) 818-3792,fringilla.ornare@google.couk,445-2826 Ligula Avenue,Thurso,Belgium
Deanna Carver,(274) 470-6852,tempor.bibendum.donec@google.couk,Ap #429-9794 Fusce Av.,Stargard Szczeciński,Costa Rica
Kyle Cleveland,(240) 975-9553,eu@google.couk,"P.O. Box 639, 2111 Cras Street",Llanidloes,Indonesia
Moses Whitfield,(425) 881-9627,nisi.cum@protonmail.com,9251 Turpis Rd.,Siquirres,Russian Federation
Cole Sanders,(393) 621-2754,quis.urna@yahoo.net,"Ap #964-4044 Amet, St.",Yishun,Australia
Evangeline Forbes,(812) 133-3927,mauris@yahoo.couk,Ap #874-6030 Dolor Rd.,Port Blair,Vietnam
Micah Russell,1-582-726-8528,nullam.ut.nisi@aol.org,"P.O. Box 922, 5823 Vehicula. Road",Cajamarca,Norway
Kai Harrington,1-648-725-1136,non.sollicitudin.a@icloud.com,7771 Quisque Rd.,Galway,Belgium
Fritz Campos,1-277-922-8686,faucibus@aol.org,Ap #575-4302 Eu Av.,Champigny-sur-Marne,India
Macey Boone,(130) 446-2525,sociis.natoque@hotmail.edu,Ap #295-1961 Ultricies Rd.,Yurimaguas,Sweden
Lenore Bell,(986) 725-2175,nunc.quisque@aol.com,159-2155 Elit Ave,Bastia,Philippines
Mercedes Benjamin,(640) 588-0124,magna.a@icloud.edu,919-5206 Odio Av.,Lives-sur-Meuse,China
Candace Hammond,(224) 948-1732,primis.in@hotmail.net,380-5852 Dui. Rd.,Fulda,Netherlands
Laurel Osborn,1-713-767-4670,nulla@google.ca,Ap #550-2586 Vel Rd.,Mauá,South Africa
Nadine Clemons,(361) 312-5878,mollis.phasellus@icloud.edu,2462 Risus. Road,Kenosha,Mexico
Brynn Rogers,(879) 235-1083,donec@google.ca,"P.O. Box 436, 2495 Quisque Ave",Ibagué,Australia
Tyrone Dixon,1-803-561-0638,duis.at.lacus@icloud.net,"P.O. Box 425, 8263 Id Road",Jacobabad,Russian Federation
Tara Navarro,(321) 343-7715,lectus.ante@outlook.edu,"P.O. Box 720, 9139 Gravida Rd.",Puerto Nariño,South Africa
Astra Lawson,1-614-273-5525,in.at@yahoo.ca,"P.O. Box 860, 9317 Enim Ave",Erie,Italy
Oliver Becker,1-685-605-4587,dolor.fusce@google.org,111 Nibh Rd.,Gilgit,Indonesia
Nichole Macias,(144) 923-6516,tempor.est@protonmail.org,"P.O. Box 111, 7786 Pede. Rd.",Oliver,United Kingdom
Reagan Rosario,1-829-434-9164,sapien@protonmail.ca,509-9636 Per Av.,Hamburg,Belgium
Christopher Porter,(764) 829-2197,tempor.lorem.eget@hotmail.net,Ap #857-4163 Turpis Ave,San Isidro,Nigeria
Harper Tanner,(757) 306-7861,amet.ante.vivamus@yahoo.com,835-4789 Cursus St.,Bauchi,Philippines
Mufutau Garner,1-852-285-2643,morbi.metus@yahoo.edu,8229 Sed St.,Wangaratta,Russian Federation
Adena Fowler,1-882-164-8865,diam.sed@google.ca,"896-9399 Non, St.",Nizhny,India
Igor Goff,(623) 439-7858,donec.sollicitudin.adipiscing@yahoo.net,Ap #502-7656 Ut Ave,Uddevalla,Canada
Geoffrey Ratliff,1-393-953-6872,ipsum.non.arcu@hotmail.com,Ap #545-7141 Eu Ave,Ulloa (Barrial],New Zealand
Brynne English,1-831-678-4981,fusce.feugiat@aol.edu,235-8338 Sed Rd.,Hamburg,Costa Rica
Barrett Macdonald,(837) 678-5541,auctor.vitae@icloud.couk,783-8349 Sem. St.,Hamburg,United States
Garrett Travis,1-811-256-5231,tempor.bibendum@yahoo.net,Ap #619-1446 Diam St.,Shimla,Mexico
Jonas Peck,(220) 869-5040,nec.imperdiet@aol.net,Ap #176-6001 Euismod Street,Neusiedl am See,Ukraine
India Sanchez,1-221-657-6478,vel.pede@icloud.edu,"P.O. Box 185, 3674 Ut Rd.",Culiacán,Chile
Stephen Curtis,1-663-680-3487,ante.nunc@icloud.net,756-7977 Magna St.,Saint Petersburg,Netherlands
Daquan Barker,1-387-919-5513,eros@protonmail.ca,Ap #965-1149 Aliquam Street,Carmen de Bolivar,France
Eleanor Walls,1-794-885-1522,convallis.dolor@protonmail.couk,900-149 Arcu St.,Berdiansk,Vietnam
Lysandra Gutierrez,(781) 644-0418,blandit.mattis.cras@protonmail.net,"Ap #548-8748 Facilisis, Avenue",Mo i Rana,Norway
Anne Roy,1-795-757-1232,aenean.eget.magna@hotmail.org,"P.O. Box 972, 1536 Nunc Ave",Bexbach,Italy
Cole Villarreal,1-632-335-4442,magna@protonmail.net,"P.O. Box 230, 1795 Malesuada Av.",Lublin,South Korea
Sylvia Buckner,(271) 367-3282,nascetur.ridiculus.mus@icloud.couk,"Ap #406-7136 Et, Street",Rabbi,India
Cheryl Small,(421) 266-7529,consectetuer.ipsum@hotmail.com,425-4912 Sem Avenue,Belfast,Canada
Ishmael Flynn,1-362-936-7448,sed.nunc@yahoo.com,Ap #575-4894 Neque. Road,Tucson,Sweden
Ann Barry,1-963-546-3827,eleifend.nec@aol.couk,132-7914 Et Ave,Abeokuta,India
Yoshio Rivers,(364) 683-5644,non.quam.pellentesque@icloud.net,"P.O. Box 712, 9795 Sit St.",Legnica,Colombia
Guy Wolfe,1-460-948-7501,a.sollicitudin.orci@outlook.net,3022 Vestibulum Rd.,Sacheon,United States
Yoshio Petersen,(721) 589-8033,elit.curabitur@google.org,1042 Mauris Ave,Évreux,Poland
Dacey Curry,(624) 358-7595,non.bibendum@protonmail.com,5549 Aliquet Rd.,Bathurst,Philippines
Amir Potts,1-423-143-3321,donec.tincidunt@aol.couk,824-714 A Avenue,Moe,Ireland
August Sandoval,1-461-732-5638,pretium@aol.couk,265-1240 Sodales Ave,Southaven,Spain
Illiana Summers,1-942-390-4333,sit.amet@outlook.edu,Ap #303-3970 Arcu. Rd.,Mirpur,Belgium
Oliver Blanchard,1-256-694-8989,purus.maecenas.libero@yahoo.org,1554 In Ave,Palangka Raya,South Korea
Barclay Guzman,1-665-526-5655,interdum.enim.non@yahoo.ca,Ap #746-1281 Faucibus Street,Xalapa,Canada
Galvin Holcomb,(158) 604-4317,egestas.a@aol.ca,Ap #988-2676 Imperdiet St.,Anchorage,Philippines
Cairo Guerra,1-511-277-3318,consectetuer.ipsum@google.com,Ap #493-3454 Neque Street,Skien,Poland
Mary Weeks,1-474-633-4407,aliquam.eros@outlook.com,Ap #743-4567 Nibh Rd.,San Juan de Dios,South Africa
Portia Keith,1-854-360-2685,ipsum.dolor@google.edu,610-566 Neque. Road,Dublin,Vietnam
Dylan Newman,1-962-786-8114,montes.nascetur.ridiculus@hotmail.com,901-9574 Augue Avenue,Amiens,Spain
Vivian Randall,1-432-471-5478,lobortis@icloud.com,9147 Arcu Avenue,Shimanovsk,Peru
Cameron Lowe,1-384-226-6127,ullamcorper.duis@outlook.couk,356-2183 Egestas St.,Ziarat,Turkey
Justina Rivera,1-634-586-1176,mauris.nulla.integer@google.edu,725-7270 Sit Avenue,Southern Islands,Poland
Callum Atkinson,1-652-395-2792,quisque.varius.nam@google.ca,"155-7108 Dui, St.",Oslo,Philippines
Sopoline Faulkner,(565) 536-4203,eros.non@aol.edu,654-4289 Penatibus Av.,Barranco Minas,Indonesia
Nasim Chang,1-431-835-2368,ac.mattis.semper@hotmail.ca,"P.O. Box 695, 4618 Purus, Avenue",Cametá,Russian Federation
Deborah Cabrera,(680) 288-5350,sem.molestie@icloud.edu,Ap #321-4714 Augue Avenue,Konotop,Mexico
Steven Noble,(441) 884-4801,amet.ante@hotmail.edu,Ap #394-3697 Nulla. Rd.,Piedras Negras,Indonesia
Cruz Doyle,1-784-637-4351,sed@icloud.edu,927-6687 Enim Avenue,Vương,Brazil
Gregory Sloan,(155) 683-7276,dui.cum.sociis@protonmail.net,Ap #884-4579 Ut Street,Khanewal,Peru
Lillian Terry,(679) 295-4831,enim.sit.amet@yahoo.ca,221-1427 Aliquet Rd.,Eindhoven,Poland
Igor Richard,(428) 737-3018,eu.dolor@protonmail.org,Ap #272-313 Velit. Avenue,Autelbas,Norway
Allistair Roberson,(269) 322-4511,libero@yahoo.com,Ap #732-7220 Augue. Av.,Panipat,Vietnam
Ivy Pace,(353) 774-5858,quis.urna@hotmail.org,Ap #314-9168 Quisque Rd.,Elbistan,Austria
Dorothy Orr,(666) 584-4172,mus.proin@protonmail.edu,847 Quam. Road,Camaragibe,Australia
Alexa Morgan,(946) 333-9126,semper@hotmail.org,635-1492 In Rd.,Ciudad Apodaca,Indonesia
Amanda Walsh,(845) 278-3952,lobortis.quis@hotmail.ca,5536 Gravida. Street,Istanbul,Turkey
Plato Barr,(614) 466-3516,in@icloud.ca,Ap #948-8266 Porttitor Av.,Bihar Sharif,Indonesia
Mark Bowen,(846) 476-9632,nulla@aol.couk,182-5180 Velit Road,North-Eastern Islands,South Korea
Brandon Brady,1-691-324-2285,aliquam@outlook.edu,Ap #965-7729 Quam Rd.,Iowa City,Belgium
Cameran Montgomery,(651) 557-5631,nibh.donec.est@icloud.com,"Ap #202-8082 Lorem, Av.",Ponta Grossa,France
Maia Mcfadden,1-647-217-7367,cubilia.curae.phasellus@outlook.com,Ap #854-4340 Enim. Avenue,General Santos,Brazil
Isaiah Benton,1-223-276-6356,ac.orci@google.org,6835 Amet Rd.,Schwaz,China
Dolan Bryant,1-517-277-6952,dapibus@outlook.net,2754 Aenean Rd.,Upper Hutt,Costa Rica
Zeph Carr,(663) 382-2981,lectus@outlook.org,Ap #850-3508 Sed Road,Mthatha,New Zealand
Clementine Kemp,1-257-349-8936,fermentum.risus@google.ca,"P.O. Box 930, 4091 Diam. Rd.",Sujawal,Indonesia
Wing Delgado,1-468-457-6278,et@google.couk,"P.O. Box 138, 3777 Donec Rd.",Tierra Amarilla,Norway
Gay Dillon,1-466-993-5134,dui.nec.urna@hotmail.net,"9375 Nec, Rd.",Fuenlabrada,Netherlands
Aaron Byers,(678) 788-1223,et.tristique@aol.org,Ap #148-4447 Vitae Street,İskenderun,Nigeria
test user, 1234567890, mumbai, mumbai, mumbai, mubai
test2 user2, 1234567890, mumbai, mumbai, mumbai, mubai
aniket, 7410852963, nerul, mumbai, mumbai, mumbai
vedika, 7410014774, null, null, mumbai, mumbai
